JILIN-1 KUANFU 01       
1 45016U 20003A   26203.85173271  .00002510  00000+0  15438-3 0  9999
2 45016  97.5012 277.1120 0010038 170.2746 189.8680 15.10897782360716
JILIN-1 KUANFU-01B      
1 49003U 21061A   26203.96210541  .00002417  00000+0  15336-3 0  9991
2 49003  97.5194 279.4892 0005419 304.7749  55.2970 15.09830304278746
JILIN-1 KUANFU 01C      
1 52443U 22048A   26203.88878278  .00003194  00000+0  20187-3 0  9990
2 52443  97.5243 280.4098 0018007 192.8018 167.2756 15.09629628232588
JILIN-1 KUANFU 02A      
1 57696U 23127A   26203.90186196  .00003839  00000+0  23439-3 0  9997
2 57696  97.5563 297.2708 0010854 207.8740 152.1909 15.10856635161028
JILIN-01 KUANFU 02B 1   
1 61189U 24169A   26203.92457034  .00004196  00000+0  26870-3 0  9999
2 61189  97.5571 292.9009 0001052 288.3734  71.7380 15.09094835101210
JILIN-01 KUANFU 02B 2   
1 61190U 24169B   26203.90438471  .00003601  00000+0  23140-3 0  9990
2 61190  97.5565 292.2647 0004902 243.4247 116.6480 15.09057419101211
JILIN-01 KUANFU 02B 3   
1 61191U 24169C   26203.91314615  .00003930  00000+0  25144-3 0  9996
2 61191  97.5562 292.7064 0013807 178.6768 181.4500 15.09097309101213
JILIN-01 KUANFU 02B 4   
1 61192U 24169D   26203.88198630  .00003699  00000+0  23689-3 0  9994
2 61192  97.5519 292.1982 0014605 139.1294 221.1033 15.09081213101212
JILIN-01 KUANFU 02B 5   
1 61193U 24169E   26203.86886646  .00004542  00000+0  28981-3 0  9992
2 61193  97.5569 292.9873 0013862 162.1462 198.0256 15.09111664101215
JILIN-01 KUANFU 02B 6   
1 61194U 24169F   26203.89269970  .00003322  00000+0  21316-3 0  9991
2 61194  97.5550 292.9009 0016304 193.5896 166.4896 15.09071781101225
