{"fetched_at":"2026-07-23T07:05:48.218Z","source":"https://celestrak.org/NORAD/elements/gp.php?NAME=JILIN&FORMAT=JSON","constellation":"jilin-1-kuanfu","records":[{"OBJECT_NAME":"JILIN-1 KUANFU 01","OBJECT_ID":"2020-003A","EPOCH":"2026-07-22T20:26:29.706144","CLASSIFICATION_TYPE":"U","MEAN_MOTION":15.10897782,"ECCENTRICITY":0.0010038,"INCLINATION":97.5012,"RA_OF_ASC_NODE":277.112,"ARG_OF_PERICENTER":170.2746,"MEAN_ANOMALY":189.868,"EPHEMERIS_TYPE":0,"NORAD_CAT_ID":45016,"ELEMENT_SET_NO":999,"REV_AT_EPOCH":36071,"BSTAR":0.00015437817,"MEAN_MOTION_DOT":0.0000251,"MEAN_MOTION_DDOT":0},{"OBJECT_NAME":"JILIN-1 KUANFU-01B","OBJECT_ID":"2021-061A","EPOCH":"2026-07-22T23:05:25.907424","CLASSIFICATION_TYPE":"U","MEAN_MOTION":15.09830304,"ECCENTRICITY":0.00054195,"INCLINATION":97.5194,"RA_OF_ASC_NODE":279.4892,"ARG_OF_PERICENTER":304.7749,"MEAN_ANOMALY":55.297,"EPHEMERIS_TYPE":0,"NORAD_CAT_ID":49003,"ELEMENT_SET_NO":999,"REV_AT_EPOCH":27874,"BSTAR":0.00015335994,"MEAN_MOTION_DOT":0.00002417,"MEAN_MOTION_DDOT":0},{"OBJECT_NAME":"JILIN-1 KUANFU 01C","OBJECT_ID":"2022-048A","EPOCH":"2026-07-22T21:19:50.832192","CLASSIFICATION_TYPE":"U","MEAN_MOTION":15.09629628,"ECCENTRICITY":0.0018007,"INCLINATION":97.5243,"RA_OF_ASC_NODE":280.4098,"ARG_OF_PERICENTER":192.8018,"MEAN_ANOMALY":167.2756,"EPHEMERIS_TYPE":0,"NORAD_CAT_ID":52443,"ELEMENT_SET_NO":999,"REV_AT_EPOCH":23258,"BSTAR":0.00020186787,"MEAN_MOTION_DOT":0.00003194,"MEAN_MOTION_DDOT":0},{"OBJECT_NAME":"JILIN-1 KUANFU 02A","OBJECT_ID":"2023-127A","EPOCH":"2026-07-22T21:38:40.873344","CLASSIFICATION_TYPE":"U","MEAN_MOTION":15.10856635,"ECCENTRICITY":0.00108549,"INCLINATION":97.5563,"RA_OF_ASC_NODE":297.2708,"ARG_OF_PERICENTER":207.874,"MEAN_ANOMALY":152.1909,"EPHEMERIS_TYPE":0,"NORAD_CAT_ID":57696,"ELEMENT_SET_NO":999,"REV_AT_EPOCH":16102,"BSTAR":0.00023438521,"MEAN_MOTION_DOT":0.00003839,"MEAN_MOTION_DDOT":0},{"OBJECT_NAME":"JILIN-01 KUANFU 02B 1","OBJECT_ID":"2024-169A","EPOCH":"2026-07-22T22:11:22.877376","CLASSIFICATION_TYPE":"U","MEAN_MOTION":15.09094835,"ECCENTRICITY":0.00010529,"INCLINATION":97.5571,"RA_OF_ASC_NODE":292.9009,"ARG_OF_PERICENTER":288.3734,"MEAN_ANOMALY":71.738,"EPHEMERIS_TYPE":0,"NORAD_CAT_ID":61189,"ELEMENT_SET_NO":999,"REV_AT_EPOCH":10121,"BSTAR":0.00026869699,"MEAN_MOTION_DOT":0.00004196,"MEAN_MOTION_DDOT":0},{"OBJECT_NAME":"JILIN-01 KUANFU 02B 2","OBJECT_ID":"2024-169B","EPOCH":"2026-07-22T21:42:18.838944","CLASSIFICATION_TYPE":"U","MEAN_MOTION":15.09057419,"ECCENTRICITY":0.00049022,"INCLINATION":97.5565,"RA_OF_ASC_NODE":292.2647,"ARG_OF_PERICENTER":243.4247,"MEAN_ANOMALY":116.648,"EPHEMERIS_TYPE":0,"NORAD_CAT_ID":61190,"ELEMENT_SET_NO":999,"REV_AT_EPOCH":10121,"BSTAR":0.00023140124,"MEAN_MOTION_DOT":0.00003601,"MEAN_MOTION_DDOT":0},{"OBJECT_NAME":"JILIN-01 KUANFU 02B 3","OBJECT_ID":"2024-169C","EPOCH":"2026-07-22T21:54:55.827360","CLASSIFICATION_TYPE":"U","MEAN_MOTION":15.09097309,"ECCENTRICITY":0.00138074,"INCLINATION":97.5562,"RA_OF_ASC_NODE":292.7064,"ARG_OF_PERICENTER":178.6768,"MEAN_ANOMALY":181.45,"EPHEMERIS_TYPE":0,"NORAD_CAT_ID":61191,"ELEMENT_SET_NO":999,"REV_AT_EPOCH":10121,"BSTAR":0.0002514351,"MEAN_MOTION_DOT":0.0000393,"MEAN_MOTION_DDOT":0},{"OBJECT_NAME":"JILIN-01 KUANFU 02B 4","OBJECT_ID":"2024-169D","EPOCH":"2026-07-22T21:10:03.616320","CLASSIFICATION_TYPE":"U","MEAN_MOTION":15.09081213,"ECCENTRICITY":0.00146056,"INCLINATION":97.5519,"RA_OF_ASC_NODE":292.1982,"ARG_OF_PERICENTER":139.1294,"MEAN_ANOMALY":221.1033,"EPHEMERIS_TYPE":0,"NORAD_CAT_ID":61192,"ELEMENT_SET_NO":999,"REV_AT_EPOCH":10121,"BSTAR":0.00023689229,"MEAN_MOTION_DOT":0.00003699,"MEAN_MOTION_DDOT":0},{"OBJECT_NAME":"JILIN-01 KUANFU 02B 5","OBJECT_ID":"2024-169E","EPOCH":"2026-07-22T20:51:10.062144","CLASSIFICATION_TYPE":"U","MEAN_MOTION":15.09111664,"ECCENTRICITY":0.00138621,"INCLINATION":97.5569,"RA_OF_ASC_NODE":292.9873,"ARG_OF_PERICENTER":162.1462,"MEAN_ANOMALY":198.0256,"EPHEMERIS_TYPE":0,"NORAD_CAT_ID":61193,"ELEMENT_SET_NO":999,"REV_AT_EPOCH":10121,"BSTAR":0.0002898138,"MEAN_MOTION_DOT":0.00004542,"MEAN_MOTION_DDOT":0},{"OBJECT_NAME":"JILIN-01 KUANFU 02B 6","OBJECT_ID":"2024-169F","EPOCH":"2026-07-22T21:25:29.254080","CLASSIFICATION_TYPE":"U","MEAN_MOTION":15.09071781,"ECCENTRICITY":0.0016304,"INCLINATION":97.555,"RA_OF_ASC_NODE":292.9009,"ARG_OF_PERICENTER":193.5896,"MEAN_ANOMALY":166.4896,"EPHEMERIS_TYPE":0,"NORAD_CAT_ID":61194,"ELEMENT_SET_NO":999,"REV_AT_EPOCH":10122,"BSTAR":0.00021316431,"MEAN_MOTION_DOT":0.00003322,"MEAN_MOTION_DDOT":0}]}
